395P/Catalina-NEAT,e,3.5802,221.0295,100.1530,7.192182,0.0510991,0.41403095,45.1947,07/24.0/2024,2000,g 10.0,4.0
# From MPEC 2020-KB7
396P/,e,5.4402,136.6203,8.3073,6.799976,0.0555831,0.41653501,99.6023,07/24.0/2024,2000,g 12.0,4.0
# From MPEC 2022-OB6
397P/Lemmon,e,10.9241,8.2229,14.5679,3.831485,0.1314176,0.40494229,196.4418,07/24.0/2024,2000,g 12.0,4.0
# From MPEC 2021-L04
398P/Boattini,e,11.0236,320.1442,127.5145,3.125317,0.1783869,0.58364408,232.6473,07/24.0/2024,2000,g 15.5,4.0
# From MPEC 2023-XP6
399P/PANSTARRS,e,13.3204,207.1284,214.4080,3.793169,0.1334138,0.44743082,154.4452,07/24.0/2024,2000,g 14.0,4.0
# From MPEC 2022-ED3
400P/PANSTARRS,e,10.9287,176.3973,238.8761,3.561959,0.1466124,0.40971043,184.5695,07/24.0/2024,2000,g 15.5,2.8
# From MPEC 2022-K19
401P/McNaught,e,12.8011,359.9139,309.4084,5.777771,0.0709682,0.57862595,120.1535,07/24.0/2024,2000,g 12.5,4.0
# From MPEC 2024-LE0
402P/LINEAR,e,30.8314,123.0638,326.8863,7.035338,0.0528174,0.43999148,50.2522,07/24.0/2024,2000,g  9.0,4.0
# From MPEC 2021-J28
403P/Catalina,e,12.3294,277.5720,163.9147,5.430938,0.0778739,0.50429778,109.4565,07/24.0/2024,2000,g 12.0,4.0
# From MPEC 2024-MB8
404P/Bressi,e,9.8034,260.0396,169.2917,4.724976,0.0959632,0.12535856,25.2934,07/24.0/2024,2000,g 10.0,4.0
# From MPEC 2021-L04
405P/Lemmon,e,9.3764,112.1905,3.2966,3.604590,0.1440191,0.68994457,188.2396,07/24.0/2024,2000,g 17.5,4.0
# From MPEC 2021-F20
406P/Gibbs,e,1.2107,352.4092,11.5496,3.578578,0.1455922,0.54142971,204.8747,07/24.0/2024,2000,g 17.0,4.0
# From MPEC 2022-YN2
407P/PANSTARRS-Fuls,e,4.8764,80.2416,93.4107,3.486817,0.1513772,0.37665791,249.2141,07/24.0/2024,2000,g 14.0,4.0
# From MPEC 2024-N80
408P/Novichonok-Gerke,e,19.3557,189.4459,226.6082,4.743954,0.0953879,0.26864795,62.6866,07/24.0/2024,2000,g 11.0,4.0
# From MPEC 2022-ED3
409P/LONEOS-Hill,e,17.1374,143.6457,15.0512,6.033692,0.0665012,0.70993173,84.6436,07/24.0/2024,2000,g 14.0,4.0
# From MPEC 2022-M21
410P/NEAT-LINEAR,e,9.3886,139.9613,313.1820,6.649285,0.0574833,0.51168808,64.7054,07/24.0/2024,2000,g 12.5,4.0
# From MPEC 2021-J28
411P/Christensen,e,12.3895,77.6534,46.5521,5.811308,0.0703547,0.58149577,89.7745,07/24.0/2024,2000,g 13.5,4.0
# From MPEC 2021-F20
412P/WISE,e,8.9309,0.8457,155.8899,3.110643,0.1796506,0.47896886,238.5918,07/24.0/2024,2000,g 17.0,4.0
# From MPEC 2022-OB6
413P/Larson,e,15.9723,39.2329,186.5432,3.733373,0.1366319,0.41901757,150.5889,07/24.0/2024,2000,g 14.0,4.0
# From MPEC 2024-JU4
414P/STEREO,e,23.4075,257.8179,210.6925,2.792683,0.2111892,0.81216664,269.3255,07/24.0/2024,2000,g 19.0,4.0
# From MPEC 2022-J42
415P/Tenagra,e,31.7999,160.2659,345.8728,4.109363,0.1183157,0.19518506,148.6551,07/24.0/2024,2000,g 12.0,4.0
# From MPEC 2021-L04
416P/Scotti,e,3.3622,355.7567,134.4153,4.007454,0.1228574,0.45510232,154.0738,07/24.0/2024,2000,g 15.5,4.0
# From MPEC 2021-W31
417P/NEOWISE,e,8.6647,119.8495,119.6318,3.303909,0.1641202,0.57329327,194.0224,07/24.0/2024,2000,g 16.5,4.0
# From MPEC 2022-TA0
418P/LINEAR,e,5.7803,277.6398,307.3650,5.093236,0.0857459,0.66371215,86.7212,07/24.0/2024,2000,g 13.0,4.0
# From MPEC 2023-UR6
419P/PANSTARRS,e,2.8001,40.4172,187.8930,3.528977,0.1486726,0.27548614,148.8243,07/24.0/2024,2000,g 12.5,4.0
# From MPEC 2024-L77
420P/Hill,e,14.4855,173.7447,156.5018,5.497650,0.0764607,0.49532768,60.8899,07/24.0/2024,2000,g 11.5,4.0
# From MPEC 2021-W31
421P/McNaught,e,10.0758,55.3318,259.8929,5.076107,0.0861803,0.67458538,109.9925,07/24.0/2024,2000,g 14.0,4.0
# From MPEC 2024-N80
422P/Christensen,e,39.5825,36.0221,304.8151,6.279808,0.0626303,0.50618809,57.8908,07/24.0/2024,2000,g 11.0,4.0
# From MPEC 2023-FK0
423P/Lemmon,e,8.3451,33.2996,80.6173,6.177749,0.0641887,0.12256675,66.4496,07/24.0/2024,2000,g  8.0,4.0
# From MPEC 2022-CN4
424P/LaSagra,e,8.6829,51.1950,312.5576,4.419839,0.1060705,0.69081767,105.7096,07/24.0/2024,2000,g 17.0,4.0
# From MPEC 2024-C04
425P/Kowalski,e,16.4196,210.0775,200.9299,6.347529,0.0616307,0.54399587,63.9067,07/24.0/2024,2000,g 12.0,4.0
# From MPEC 2024-N80
426P/PANSTARRS,e,17.7828,280.3948,118.5111,3.187025,0.1732311,0.16128794,54.9275,07/24.0/2024,2000,g 13.5,4.0
# From MPEC 2023-J29
428P/Gibbs,e,8.5049,299.3238,36.9059,3.487486,0.1513336,0.51857004,176.6121,07/24.0/2024,2000,g 15.0,4.0
# From MPEC 2024-EF7
429P/LINEAR-Hill,e,7.5158,322.0425,75.6835,3.554803,0.1470553,0.49121510,137.3017,07/24.0/2024,2000,g 15.5,4.0
# From MPEC 2022-L66
430P/Scotti,e,4.4752,54.6647,94.4249,3.103991,0.1802285,0.49993692,173.8667,07/24.0/2024,2000,g 16.5,4.0
# From MPEC 2024-EF7
431P/Scotti,e,22.3887,202.8433,199.9720,3.476117,0.1520766,0.47765096,135.5633,07/24.0/2024,2000,g 14.0,4.0
# From MPEC 2021-U31
432P/PANSTARRS,e,10.0683,239.1288,105.3212,3.037317,0.1861953,0.24118242,197.2113,07/24.0/2024,2000,g 17.0,4.0
# From MPEC 2024-D33
434P/Tenagra,e,6.3360,288.9292,128.3497,4.134182,0.1172518,0.27464190,117.3695,07/24.0/2024,2000,g 13.0,4.0
# From MPEC 2021-W31
435P/PANSTARRS,e,18.8745,98.5311,244.2435,3.020678,0.1877359,0.31788300,205.2088,07/24.0/2024,2000,g 17.0,4.0
# From MPEC 2022-X67
436P/Garradd,e,20.2003,87.1629,282.7272,5.935597,0.0681565,0.66948494,65.3402,07/24.0/2024,2000,g 14.5,4.0
# From MPEC 2023-B57
437P/Lemmon-PANSTARRS,e,3.6890,245.8412,206.9386,4.566400,0.1010051,0.25507746,71.1455,07/24.0/2024,2000,g 13.0,4.0
# From MPEC 2021-W47
438P/Christensen,e,8.2809,260.1127,59.0317,3.851162,0.1304116,0.41444777,205.0542,07/24.0/2024,2000,g 14.5,4.0
# From MPEC 2022-C56
439P/LINEAR,e,7.1135,56.4348,342.0896,3.491079,0.1511000,0.46942493,160.5539,07/24.0/2024,2000,g 13.5,4.0
# From MPEC 2024-N80
440P/Kobayashi,e,12.3440,328.8334,183.2865,8.576912,0.0392381,0.76060144,33.2330,07/24.0/2024,2000,g 15.5,4.0
# From MPEC 2022-X67
441P/PANSTARRS,e,2.5744,143.5991,178.8622,4.133468,0.1172822,0.19495325,311.6393,07/24.0/2024,2000,g 13.5,4.0
# From MPEC 2024-N80
442P/McNaught,e,6.0576,31.9947,310.7172,4.961247,0.0891903,0.53265206,62.9464,07/24.0/2024,2000,g 13.5,4.0
# From MPEC 2023-SQ0
443P/PANSTARRS-Christensen,e,19.8879,108.9402,145.1080,4.125307,0.1176304,0.28324736,76.8168,07/24.0/2024,2000,g 13.5,4.0
# From MPEC 2023-VM5
444P/WISE-PANSTARRS,e,22.4833,88.4995,172.2435,3.448519,0.1539059,0.56831180,114.6519,07/24.0/2024,2000,g 17.0,4.0
# From MPEC 2024-BE0
445P/Lemmon-PANSTARRS,e,1.0886,126.5909,213.3395,4.049733,0.1209385,0.41396629,85.5412,07/24.0/2024,2000,g 15.0,4.0
# From MPEC 2024-NE4
446P/McNaught,e,16.6167,336.3729,344.6648,4.564002,0.1010847,0.64671693,79.5306,07/24.0/2024,2000,g 16.5,4.0
# From MPEC 2022-YB4
447P/Sheppard-Tholen,e,7.4388,302.6367,97.6911,5.630881,0.0737632,0.17805052,52.0402,07/24.0/2024,2000,g 12.0,4.0
# From MPEC 2023-A50
448P/PANSTARRS,e,12.1490,161.7578,218.7717,3.635284,0.1421990,0.41855955,97.6224,07/24.0/2024,2000,g 16.0,4.0
# From MPEC 2024-DC6
449P/Leonard,e,15.4718,242.5240,176.7375,3.600053,0.1442915,0.47985325,192.9496,07/24.0/2024,2000,g 16.0,4.0
# From MPEC 2024-D33
450P/LONEOS,e,10.5702,124.6936,21.7274,7.968458,0.0438170,0.31283333,320.1544,07/24.0/2024,2000,g  6.5,4.0
# From MPEC 2023-HD1
451P/Christensen,e,26.4804,300.8856,186.7410,6.345844,0.0616552,0.55900831,37.2581,07/24.0/2024,2000,g 15.5,4.0
# From MPEC 2024-NE4
452P/Sheppard-Jewitt,e,6.4214,123.6791,37.0540,7.305055,0.0499193,0.42808443,22.7323,07/24.0/2024,2000,g  9.0,4.0
# From MPEC 2023-RF3
453P/WISE-Lemmon,e,27.0668,42.8963,70.8617,5.464117,0.0771657,0.58297652,39.2639,07/24.0/2024,2000,g 14.0,4.0
# From MPEC 2023-CD7
454P/PANSTARRS,e,19.8126,54.5825,20.1220,4.209416,0.1141225,0.36158739,83.1416,07/24.0/2024,2000,g 14.0,4.0
# From MPEC 2022-Y14
455P/PANSTARRS,e,14.1373,146.1844,237.5124,3.152698,0.1760680,0.30475896,90.6465,07/24.0/2024,2000,g 17.0,4.0
# From MPEC 2023-N01
456P/PANSTARRS,e,16.9705,243.1579,233.2400,3.173589,0.1743324,0.11737498,313.6396,07/24.0/2024,2000,g 13.5,4.0
# From MPEC 2024-LE0
457P/Lemmon-PANSTARRS,e,5.2252,175.9685,104.3924,2.645928,0.2290008,0.11859778,353.7364,07/24.0/2024,2000,g 15.5,4.0
# From MPEC 2023-HD1
458P/Jahn,e,13.6250,1.5816,104.8599,3.858215,0.1300542,0.31718790,82.2657,07/24.0/2024,2000,g 17.3,4.0
# From MPEC 2024-N80
459P/Catalina,e,7.1735,256.9883,205.2070,3.240004,0.1689997,0.57776821,87.6302,07/24.0/2024,2000,g 15.5,4.0
# From MPEC 2023-G14
460P/PANSTARRS,e,18.8966,180.5150,351.9449,3.027120,0.1871370,0.66404461,212.1851,07/24.0/2024,2000,g 21.0,4.0
# From MPEC 2024-GJ3
461P/WISE,e,18.4071,194.3796,174.8330,3.143642,0.1768294,0.56994558,180.9287,07/24.0/2024,2000,g 18.5,4.0
# From MPEC 2024-BE0
462P/LONEOS-PANSTARRS,e,7.0311,322.7463,4.3354,4.873006,0.0916239,0.57818602,66.1776,07/24.0/2024,2000,g 17.0,4.0
# From MPEC 2024-GJ3
463P/NEOWISE,e,29.2902,283.2128,216.3486,2.974338,0.1921404,0.82568511,92.6757,07/24.0/2024,2000,g 18.0,4.0
# From MPEC 2024-N80
464P/PANSTARRS,e,21.6691,309.5777,267.6133,4.685812,0.0971688,0.28046543,49.7856,07/24.0/2024,2000,g 10.5,4.0
# From MPEC 2024-NE4
465P/Hill,e,25.8665,217.9976,141.0728,6.022281,0.0666903,0.61364759,29.4482,07/24.0/2024,2000,g 12.5,4.0
# From MPEC 2024-JU4
466P/PANSTARRS,e,12.2556,119.6343,197.0415,4.053789,0.1207570,0.46868985,53.9327,07/24.0/2024,2000,g 14.0,4.0
# From MPEC 2023-T65
467P/LINEAR-Grauer,e,2.4790,43.2667,267.8217,5.829935,0.0700178,0.05508406,42.0596,07/24.0/2024,2000,g  9.0,4.0
# From MPEC 2024-O39
468P/SidingSpring,e,50.4473,356.1237,322.5806,7.122534,0.0518504,0.44541454,12.7441,07/24.0/2024,2000,g 11.5,4.0
# From MPEC 2023-P35
469P/PANSTARRS,e,20.1739,178.9659,43.5137,4.340703,0.1089843,0.30767929,305.2300,07/24.0/2024,2000,g 13.5,4.0
# From MPEC 2024-D33
470P/PANSTARRS,e,8.8444,246.1756,151.8695,4.472428,0.1042051,0.39009088,22.8711,07/24.0/2024,2000,g 15.5,4.0
# From MPEC 2024-GJ3
471P/,e,4.7935,283.3076,94.9404,5.709281,0.0722490,0.62822414,15.6654,07/24.0/2024,2000,g 12.0,4.0
# From MPEC 2024-D33
472P/NEAT-LINEAR,e,10.8363,205.9981,218.9544,7.830381,0.0449811,0.56712699,0.3791,07/24.0/2024,2000,g 10.5,4.0
# From MPEC 2024-MB8
